IRIDIUM 154             
1 43574U 18061F   26195.58086160  .00000075  00000+0  19705-4 0  9993
2 43574  86.3939  45.3486 0002307  90.5075 269.6386 14.34217512417339
IRIDIUM 163             
1 43575U 18061G   26195.63160271  .00000048  00000+0  10163-4 0  9995
2 43575  86.3936  45.2416 0002129  85.7174 274.4265 14.34217328417310
IRIDIUM 156             
1 43576U 18061H   26195.60623249  .00000050  00000+0  10754-4 0  9991
2 43576  86.3936  45.2595 0002092  92.5037 267.6399 14.34217546417305
IRIDIUM 164             
1 43577U 18061J   26195.58720619  .00000146  00000+0  44923-4 0  9999
2 43577  86.3938  45.3084 0002325  89.3931 270.7531 14.34218141417347
IRIDIUM 159             
1 43578U 18061K   26195.62525994  .00000052  00000+0  11407-4 0  9991
2 43578  86.3935  45.2288 0002140  85.2348 274.9092 14.34217422417318
IRIDIUM 180             
1 43922U 19002A   26195.48521969  .00000108  00000+0  31626-4 0  9999
2 43922  86.3990 342.1857 0002188  90.9081 269.2366 14.34218297392901
IRIDIUM 176             
1 43923U 19002B   26195.41414838  .00000397  00000+0  59079-4 0  9991
2 43923  86.6110 342.1551 0002340  89.9358 270.2128 14.72248507403253
IRIDIUM 168             
1 43924U 19002C   26195.47887594 -.00000054  00000+0 -26204-4 0  9997
2 43924  86.3989 342.2665 0002106  91.6610 268.4827 14.34216610392882
IRIDIUM 173             
1 43925U 19002D   26195.46619192 -.00000073  00000+0 -33059-4 0  9991
2 43925  86.3987 342.1599 0002022  91.7558 268.3869 14.34216586392860
IRIDIUM 169             
1 43926U 19002E   26195.58762092  .00000028  00000+0  25700-5 0  9996
2 43926  86.4220  13.7340 0001863 102.5988 257.5418 14.38613118394168
IRIDIUM 172             
1 43927U 19002F   26195.45984970  .00000016  00000+0 -11844-5 0  9996
2 43927  86.3987 342.1699 0002185  90.2993 269.8453 14.34217465392873
IRIDIUM 175             
1 43928U 19002G   26195.51645658  .00000183  00000+0  48125-4 0  9996
2 43928  86.4513 279.0979 0005282 116.6034 243.5709 14.43627048402922
IRIDIUM 171             
1 43929U 19002H   26195.51058995  .00000032  00000+0  44291-5 0  9993
2 43929  86.3998 342.4579 0002217  94.8728 265.2721 14.34217571392875
IRIDIUM 170             
1 43930U 19002J   26195.48828647  .00000398  00000+0  59277-4 0  9994
2 43930  86.6110 342.1263 0002273  86.4034 273.7443 14.72249150403274
IRIDIUM 167             
1 43931U 19002K   26195.43447859  .00000040  00000+0  71150-5 0  9991
2 43931  86.3990 342.2033 0002278  98.7952 261.3502 14.34217728392869
IRIDIUM 181             
1 56726U 23068S   26195.63021917  .00000174  00000+0  45806-4 0  9995
2 56726  86.4475  45.3143 0002409  83.8525 276.2951 14.43312076166396
IRIDIUM 177             
1 56727U 23068T   26195.29808072  .00000553  00000+0  69593-4 0  9993
2 56727  86.1985 315.9197 0002149  94.6056 265.5411 14.80029761170377
IRIDIUM 174             
1 56728U 23068U   26195.47584746  .00000409  00000+0  61010-4 0  9999
2 56728  86.6118 342.2815 0002002  87.0502 273.0945 14.72257724170033
IRIDIUM 178             
1 56729U 23068V   26195.55752156  .00000178  00000+0  20107-4 0  9996
2 56729  86.6535  13.9199 0002316  90.6819 269.4668 14.80026014170411
IRIDIUM 179             
1 56730U 23068W   26195.55216872  .00000170  00000+0  18947-4 0  9999
2 56730  86.6766  22.9827 0002324  93.4133 266.7354 14.80033444170413
