OBJECT_NAME,OBJECT_ID,EPOCH,MEAN_MOTION,ECCENTRICITY,INCLINATION,RA_OF_ASC_NODE,ARG_OF_PERICENTER,MEAN_ANOMALY,EPHEMERIS_TYPE,CLASSIFICATION_TYPE,NORAD_CAT_ID,ELEMENT_SET_NO,REV_AT_EPOCH,BSTAR,MEAN_MOTION_DOT,MEAN_MOTION_DDOT
IRIDIUM 154,2018-061F,2026-07-14T13:56:26.442240,14.34217512,.0002307,86.3939,45.3486,90.5075,269.6386,0,U,43574,999,41733,.19705432E-4,.75E-6,0
IRIDIUM 163,2018-061G,2026-07-14T15:09:30.474144,14.34217328,.0002129,86.3936,45.2416,85.7174,274.4265,0,U,43575,999,41731,.10162825E-4,.48E-6,0
IRIDIUM 156,2018-061H,2026-07-14T14:32:58.487136,14.34217546,.00020926,86.3936,45.2595,92.5037,267.6399,0,U,43576,999,41730,.10753926E-4,.5E-6,0
IRIDIUM 164,2018-061J,2026-07-14T14:05:34.614816,14.34218141,.00023256,86.3938,45.3084,89.3931,270.7531,0,U,43577,999,41734,.44922634E-4,.146E-5,0
IRIDIUM 159,2018-061K,2026-07-14T15:00:22.458816,14.34217422,.000214,86.3935,45.2288,85.2348,274.9092,0,U,43578,999,41731,.11407318E-4,.52E-6,0
IRIDIUM 180,2019-002A,2026-07-14T11:38:42.981216,14.34218297,.00021883,86.3990,342.1857,90.9081,269.2366,0,U,43922,999,39290,.316262E-4,.108E-5,0
IRIDIUM 176,2019-002B,2026-07-14T09:56:22.420032,14.72248507,.00023404,86.6110,342.1551,89.9358,270.2128,0,U,43923,999,40325,.59079096E-4,.397E-5,0
IRIDIUM 168,2019-002C,2026-07-14T11:29:34.881216,14.34216610,.00021068,86.3989,342.2665,91.6610,268.4827,0,U,43924,999,39288,-.26204411E-4,-.54E-6,0
IRIDIUM 173,2019-002D,2026-07-14T11:11:18.981888,14.34216586,.00020222,86.3987,342.1599,91.7558,268.3869,0,U,43925,999,39286,-.33058666E-4,-.73E-6,0
IRIDIUM 169,2019-002E,2026-07-14T14:06:10.447488,14.38613118,.00018631,86.4220,13.7340,102.5988,257.5418,0,U,43926,999,39416,.2570029E-5,.28E-6,0
IRIDIUM 172,2019-002F,2026-07-14T11:02:11.014080,14.34217465,.00021855,86.3987,342.1699,90.2993,269.8453,0,U,43927,999,39287,-.1184412E-5,.16E-6,0
IRIDIUM 175,2019-002G,2026-07-14T12:23:41.848512,14.43627048,.00052828,86.4513,279.0979,116.6034,243.5709,0,U,43928,999,40292,.48125442E-4,.183E-5,0
IRIDIUM 171,2019-002H,2026-07-14T12:15:14.971680,14.34217571,.00022173,86.3998,342.4579,94.8728,265.2721,0,U,43929,999,39287,.4429123E-5,.32E-6,0
IRIDIUM 170,2019-002J,2026-07-14T11:43:07.951008,14.72249150,.00022736,86.6110,342.1263,86.4034,273.7443,0,U,43930,999,40327,.59277149E-4,.398E-5,0
IRIDIUM 167,2019-002K,2026-07-14T10:25:38.950176,14.34217728,.00022781,86.3990,342.2033,98.7952,261.3502,0,U,43931,999,39286,.711495E-5,.4E-6,0
IRIDIUM 181,2023-068S,2026-07-14T15:07:30.936288,14.43312076,.00024098,86.4475,45.3143,83.8525,276.2951,0,U,56726,999,16639,.45805832E-4,.174E-5,0
IRIDIUM 177,2023-068T,2026-07-14T07:09:14.174208,14.80029761,.00021494,86.1985,315.9197,94.6056,265.5411,0,U,56727,999,17037,.6959268E-4,.553E-5,0
IRIDIUM 174,2023-068U,2026-07-14T11:25:13.220544,14.72257724,.00020026,86.6118,342.2815,87.0502,273.0945,0,U,56728,999,17003,.61009907E-4,.409E-5,0
IRIDIUM 178,2023-068V,2026-07-14T13:22:49.862784,14.80026014,.00023169,86.6535,13.9199,90.6819,269.4668,0,U,56729,999,17041,.20106777E-4,.178E-5,0
IRIDIUM 179,2023-068W,2026-07-14T13:15:07.377408,14.80033444,.00023243,86.6766,22.9827,93.4133,266.7354,0,U,56730,999,17041,.18947286E-4,.17E-5,0
